{
  "type": "FeatureCollection",
  "features": [
    {
      "type": "Feature",
      "properties": {
        "norad_id": 41772,
        "name": "SKYSAT-C5",
        "group": "resource",
        "lat": 8.205779414624896,
        "lon": 30.974798382443822,
        "alt_km": 464.21282138446895,
        "timestamp": "2025-12-14T07:33:19.135346+00:00",
        "meta_object_name": "SKYSAT-C5",
        "meta_object_id": "2016-058C",
        "meta_epoch": "2025-12-13T15:52:19.056288",
        "meta_mean_motion": 15.34792608,
        "meta_eccentricity": 0.00011157,
        "meta_inclination": 97.0765,
        "meta_ra_of_asc_node": 31.3742,
        "meta_arg_of_pericenter": 206.2296,
        "meta_mean_anomaly": 153.8892,
        "meta_ephemeris_type": 0,
        "meta_classification_type": "U",
        "meta_norad_cat_id": 41772,
        "meta_element_set_no": 999,
        "meta_rev_at_epoch": 51530,
        "meta_bstar": 0.00036012893,
        "meta_mean_motion_dot": 0.00012078,
        "meta_mean_motion_ddot": 0,
        "tle_line1": "1 41772U 16058C   25347.66133167  .00012078  00000+0  36013-3 0  9998",
        "tle_line2": "2 41772  97.0765  31.3742 0001115 206.2296 153.8892 15.34792608515307"
      },
      "geometry": {
        "type": "Point",
        "coordinates": [
          30.974798382443822,
          8.205779414624896
        ]
      }
    },
    {
      "type": "Feature",
      "properties": {
        "norad_id": 41773,
        "name": "SKYSAT-C2",
        "group": "resource",
        "lat": 34.58338140523708,
        "lon": 7.889710592083172,
        "alt_km": 449.0583603004534,
        "timestamp": "2025-12-14T07:33:19.135357+00:00",
        "meta_object_name": "SKYSAT-C2",
        "meta_object_id": "2016-058D",
        "meta_epoch": "2025-12-13T14:13:12.218592",
        "meta_mean_motion": 15.37296949,
        "meta_eccentricity": 0.00041576,
        "meta_inclination": 97.0368,
        "meta_ra_of_asc_node": 12.0831,
        "meta_arg_of_pericenter": 32.2799,
        "meta_mean_anomaly": 327.87,
        "meta_ephemeris_type": 0,
        "meta_classification_type": "U",
        "meta_norad_cat_id": 41773,
        "meta_element_set_no": 999,
        "meta_rev_at_epoch": 51649,
        "meta_bstar": 0.0003795174,
        "meta_mean_motion_dot": 0.00013803,
        "meta_mean_motion_ddot": 0,
        "tle_line1": "1 41773U 16058D   25347.59250253  .00013803  00000+0  37952-3 0  9997",
        "tle_line2": "2 41773  97.0368  12.0831 0004157  32.2799 327.8700 15.37296949516498"
      },
      "geometry": {
        "type": "Point",
        "coordinates": [
          7.889710592083172,
          34.58338140523708
        ]
      }
    },
    {
      "type": "Feature",
      "properties": {
        "norad_id": 41774,
        "name": "SKYSAT-C3",
        "group": "resource",
        "lat": -80.83585387647395,
        "lon": 153.0449316356053,
        "alt_km": 441.41992763501094,
        "timestamp": "2025-12-14T07:33:19.135367+00:00",
        "meta_object_name": "SKYSAT-C3",
        "meta_object_id": "2016-058E",
        "meta_epoch": "2025-12-13T14:51:57.464640",
        "meta_mean_motion": 15.44436683,
        "meta_eccentricity": 0.00017198,
        "meta_inclination": 96.9308,
        "meta_ra_of_asc_node": 21.3242,
        "meta_arg_of_pericenter": 108.8076,
        "meta_mean_anomaly": 251.336,
        "meta_ephemeris_type": 0,
        "meta_classification_type": "U",
        "meta_norad_cat_id": 41774,
        "meta_element_set_no": 999,
        "meta_rev_at_epoch": 51739,
        "meta_bstar": 0.00042345172,
        "meta_mean_motion_dot": 0.00019528,
        "meta_mean_motion_ddot": 0,
        "tle_line1": "1 41774U 16058E   25347.61941510  .00019528  00000+0  42345-3 0  9996",
        "tle_line2": "2 41774  96.9308  21.3242 0001719 108.8076 251.3360 15.44436683517391"
      },
      "geometry": {
        "type": "Point",
        "coordinates": [
          153.0449316356053,
          -80.83585387647395
        ]
      }
    },
    {
      "type": "Feature",
      "properties": {
        "norad_id": 41785,
        "name": "ALSAT 1B",
        "group": "resource",
        "lat": 71.18781050022143,
        "lon": -23.630780843077126,
        "alt_km": 640.7589192991518,
        "timestamp": "2025-12-14T07:33:19.135377+00:00",
        "meta_object_name": "ALSAT 1B",
        "meta_object_id": "2016-059C",
        "meta_epoch": "2025-12-13T14:54:45.592992",
        "meta_mean_motion": 14.72078005,
        "meta_eccentricity": 0.00107243,
        "meta_inclination": 97.7819,
        "meta_ra_of_asc_node": 359.3731,
        "meta_arg_of_pericenter": 100.59,
        "meta_mean_anomaly": 259.6517,
        "meta_ephemeris_type": 0,
        "meta_classification_type": "U",
        "meta_norad_cat_id": 41785,
        "meta_element_set_no": 999,
        "meta_rev_at_epoch": 49327,
        "meta_bstar": 0.00017150394,
        "meta_mean_motion_dot": 1.032e-05,
        "meta_mean_motion_ddot": 0,
        "tle_line1": "1 41785U 16059C   25347.62136103  .00001032  00000+0  17150-3 0  9991",
        "tle_line2": "2 41785  97.7819 359.3731 0010724 100.5900 259.6517 14.72078005493272"
      },
      "geometry": {
        "type": "Point",
        "coordinates": [
          -23.630780843077126,
          71.18781050022143
        ]
      }
    },
    {
      "type": "Feature",
      "properties": {
        "norad_id": 41787,
        "name": "PATHFINDER 1",
        "group": "resource",
        "lat": 54.3467808893958,
        "lon": -177.9482548536567,
        "alt_km": 650.4310816551706,
        "timestamp": "2025-12-14T07:33:19.135388+00:00",
        "meta_object_name": "PATHFINDER 1",
        "meta_object_id": "2016-059E",
        "meta_epoch": "2025-12-13T14:37:29.529984",
        "meta_mean_motion": 14.67323041,
        "meta_eccentricity": 0.00300199,
        "meta_inclination": 97.8139,
        "meta_ra_of_asc_node": 350.3426,
        "meta_arg_of_pericenter": 78.5855,
        "meta_mean_anomaly": 281.872,
        "meta_ephemeris_type": 0,
        "meta_classification_type": "U",
        "meta_norad_cat_id": 41787,
        "meta_element_set_no": 999,
        "meta_rev_at_epoch": 49249,
        "meta_bstar": 0.00021829656,
        "meta_mean_motion_dot": 1.194e-05,
        "meta_mean_motion_ddot": 0,
        "tle_line1": "1 41787U 16059E   25347.60936956  .00001194  00000+0  21830-3 0  9994",
        "tle_line2": "2 41787  97.8139 350.3426 0030019  78.5855 281.8720 14.67323041492497"
      },
      "geometry": {
        "type": "Point",
        "coordinates": [
          -177.9482548536567,
          54.3467808893958
        ]
      }
    },
    {
      "type": "Feature",
      "properties": {
        "norad_id": 41790,
        "name": "SCATSAT 1",
        "group": "resource",
        "lat": -3.6354739453225475,
        "lon": -135.51666655040665,
        "alt_km": 616.5629137172073,
        "timestamp": "2025-12-14T07:33:19.135399+00:00",
        "meta_object_name": "SCATSAT 1",
        "meta_object_id": "2016-059H",
        "meta_epoch": "2025-12-13T16:07:08.506272",
        "meta_mean_motion": 14.78941778,
        "meta_eccentricity": 0.00563057,
        "meta_inclination": 98.1466,
        "meta_ra_of_asc_node": 44.3536,
        "meta_arg_of_pericenter": 125.0499,
        "meta_mean_anomaly": 235.6012,
        "meta_ephemeris_type": 0,
        "meta_classification_type": "U",
        "meta_norad_cat_id": 41790,
        "meta_element_set_no": 999,
        "meta_rev_at_epoch": 7416,
        "meta_bstar": 0.00031870268,
        "meta_mean_motion_dot": 2.358e-05,
        "meta_mean_motion_ddot": 0,
        "tle_line1": "1 41790U 16059H   25347.67162623  .00002358  00000+0  31870-3 0  9995",
        "tle_line2": "2 41790  98.1466  44.3536 0056305 125.0499 235.6012 14.78941778 74164"
      },
      "geometry": {
        "type": "Point",
        "coordinates": [
          -135.51666655040665,
          -3.6354739453225475
        ]
      }
    },
    {
      "type": "Feature",
      "properties": {
        "norad_id": 41875,
        "name": "GOKTURK 1A",
        "group": "resource",
        "lat": 3.7402709359252166,
        "lon": 61.19505343561913,
        "alt_km": 686.8170501181767,
        "timestamp": "2025-12-14T07:33:19.135410+00:00",
        "meta_object_name": "GOKTURK 1A",
        "meta_object_id": "2016-073A",
        "meta_epoch": "2025-12-13T15:58:39.885888",
        "meta_mean_motion": 14.62782268,
        "meta_eccentricity": 0.0001232,
        "meta_inclination": 98.1424,
        "meta_ra_of_asc_node": 240.0186,
        "meta_arg_of_pericenter": 79.7074,
        "meta_mean_anomaly": 280.4267,
        "meta_ephemeris_type": 0,
        "meta_classification_type": "U",
        "meta_norad_cat_id": 41875,
        "meta_element_set_no": 999,
        "meta_rev_at_epoch": 48170,
        "meta_bstar": 0.00020618222,
        "meta_mean_motion_dot": 1.005e-05,
        "meta_mean_motion_ddot": 0,
        "tle_line1": "1 41875U 16073A   25347.66573942  .00001005  00000+0  20618-3 0  9990",
        "tle_line2": "2 41875  98.1424 240.0186 0001232  79.7074 280.4267 14.62782268481703"
      },
      "geometry": {
        "type": "Point",
        "coordinates": [
          61.19505343561913,
          3.7402709359252166
        ]
      }
    }
  ]
}